KUZGTU 1 (RS47S)        
1 57217U 23091AV  26167.83788726  .00009997  00000+0  34759-3 0  9992
2 57217  97.5064 232.3142 0012310  99.0562 261.2072 15.29856285164327
SONATE-2                
1 59112U 24043Q   26167.68892774  .00032720  00000+0  42569-3 0  9996
2 59112  97.5532 318.0536 0007039 197.2999 162.8018 15.58684750127816
MESAT1                  
1 60209U 24125G   26167.85020551  .00048380  00000+0  52812-3 0  9992
2 60209  97.2286  25.3248 0009546 204.9748 155.1050 15.63168952109514
OOV-CUBE (TUBSAT-30)    
1 60240U 24128F   26167.65623862  .00001551  00000+0  12883-3 0  9995
2 60240  61.9941 227.4248 0044650 133.6062 226.8748 15.02772513106033
COLIBRI-S (RS67S)       
1 61746U 24199M   26167.86785850  .00018559  00000+0  35983-3 0  9996
2 61746  97.2990  41.7191 0006246 280.4484  79.6062 15.47714656137369
HORS 3 (RS81S)          
1 61753U 24199U   26167.89643192  .00032134  00000+0  48023-3 0  9993
2 61753  97.2973  43.7313 0003740 279.6834  80.3998 15.54957548137512
HORS 4 (RS82S)          
1 61754U 24199V   26167.85789799  .00039228  00000+0  49177-3 0  9996
2 61754  97.2919  44.8915 0003080 260.0445 100.0464 15.59655793137590
SIT-2086                
1 61764U 24199AF  26167.87432231  .00032505  00000+0  52005-3 0  9990
2 61764  97.2929  44.1863 0004552 251.7938 108.2819 15.53068306134386
HYPERVIEW 1G (RS66S)    
1 61772U 24199AP  26167.74509406  .00117914  00000+0  76208-3 0  9993
2 61772  97.2865  47.4421 0003695 219.9631 140.1363 15.75736016134601
ALTAIR (RS65S)          
1 61779U 24199AW  26167.85158828  .00006996  00000+0  19507-3 0  9996
2 61779  97.3024  37.2048 0011137 312.5848  47.4457 15.37018810137067
ASRTU-1 (AO-123)        
1 61781U 24199AY  26167.83919564  .00006276  00000+0  18284-3 0  9991
2 61781  97.2995  36.5132 0012333 315.5923  44.4331 15.35671634133878
SAMSAT-IONOSPHERE (RS7*)
1 61784U 24199BB  26167.80244707  .00037044  00000+0  50167-3 0  9994
2 61784  97.2941  43.6807 0005848 278.1915  81.8677 15.57594032137500
RTU MIREA 1 (RS51S)     
1 61785U 24199BC  26167.82771299  .00050156  00000+0  59478-3 0  9991
2 61785  97.2931  44.5366 0005521 269.7451  90.3174 15.61053795134414
TEVEL2-4                
1 63213U 25052D   26167.66055269  .00015148  00000+0  45375-3 0  9995
2 63213  97.3905  64.0518 0004854 103.7970 256.3814 15.34595497 70033
TEVEL2-5                
1 63214U 25052E   26167.68099411  .00014324  00000+0  43161-3 0  9991
2 63214  97.3904  64.0201 0004781 105.3171 254.8600 15.34422878 70030
TEVEL2-6                
1 63215U 25052F   26167.69331356  .00014204  00000+0  42848-3 0  9998
2 63215  97.3910  64.0166 0004685 106.2697 253.9062 15.34387604 70033
TEVEL2-1                
1 63217U 25052H   26167.65693069  .00014437  00000+0  44286-3 0  9994
2 63217  97.3879  63.6054 0004751 114.6585 245.5153 15.33853046 70016
TEVEL2-3                
1 63218U 25052J   26167.52112230  .00014257  00000+0  43669-3 0  9991
2 63218  97.3885  63.4913 0004702 115.0626 245.1106 15.33904258 69994
TEVEL2-2                
1 63219U 25052K   26167.65724747  .00014434  00000+0  44263-3 0  9996
2 63219  97.3883  63.6082 0004715 115.1533 245.0199 15.33861744 70012
TEVEL2-9                
1 63237U 25052AD  26167.69930485  .00012673  00000+0  41358-3 0  9993
2 63237  97.3944  63.0262 0007764 132.1574 228.0328 15.31885267 69955
TEVEL2-7                
1 63238U 25052AE  26167.67478499  .00012652  00000+0  41668-3 0  9995
2 63238  97.3945  62.9183 0007828 132.5601 227.6303 15.31589641 69947
TEVEL2-8                
1 63239U 25052AF  26167.68303146  .00012386  00000+0  40821-3 0  9997
2 63239  97.3946  62.9032 0007849 133.0156 227.1744 15.31573973 69941
INNOSAT 16 (RS92S7)     
1 64878U 25155C   26167.87084934  .00004669  00000+0  18726-3 0  9997
2 64878  97.4565 134.9996 0010520 176.3789 183.7527 15.25454193 80629
GEOSCAN 6 (RS92S6)      
1 64879U 25155D   26167.85459405  .00008825  00000+0  30482-3 0  9996
2 64879  97.4558 136.4051 0008307 163.4304 196.7209 15.30146978 80717
GEOSCAN 1 (RS92S1)      
1 64880U 25155E   26167.85717216  .00009321  00000+0  31597-3 0  9995
2 64880  97.4555 136.5554 0008255 163.1405 197.0112 15.30741644 80725
239ALFEROV (RS61S)      
1 64881U 25155F   26167.82728742  .00011575  00000+0  36588-3 0  9998
2 64881  97.4555 137.0857 0007995 160.0998 200.0557 15.32931993 80752
GEOSCAN 2 (RS92S2)      
1 64890U 25155Q   26167.85091536  .00009465  00000+0  31813-3 0  9996
2 64890  97.4553 136.7014 0008067 150.3926 209.7773 15.31013048 80730
GEOSCAN 5 (RS92S5)      
1 64891U 25155R   26167.81638669  .00011952  00000+0  37410-3 0  9990
2 64891  97.4548 137.2120 0006701 163.6154 196.5306 15.33249489 80762
GEOSCAN 4 (RS92S4)      
1 64892U 25155S   26167.86587332  .00012739  00000+0  39658-3 0  9996
2 64892  97.4551 137.3102 0006779 163.1803 196.9665 15.33405287 80772
GEOSCAN 3 (RS92S3)      
1 64893U 25155T   26167.86704341  .00015832  00000+0  46223-3 0  9991
2 64893  97.4540 137.7402 0006730 161.4077 198.7414 15.35387677 80809
