OBJECT_NAME,OBJECT_ID,EPOCH,MEAN_MOTION,ECCENTRICITY,INCLINATION,RA_OF_ASC_NODE,ARG_OF_PERICENTER,MEAN_ANOMALY,EPHEMERIS_TYPE,CLASSIFICATION_TYPE,NORAD_CAT_ID,ELEMENT_SET_NO,REV_AT_EPOCH,BSTAR,MEAN_MOTION_DOT,MEAN_MOTION_DDOT
KUZGTU 1 (RS47S),2023-091AV,2026-06-16T20:06:33.459264,15.29856285,.001231,97.5064,232.3142,99.0562,261.2072,0,U,57217,999,16432,.34759E-3,.9997E-4,0
SONATE-2,2024-043Q,2026-06-16T16:32:03.356736,15.58684750,.0007039,97.5532,318.0536,197.2999,162.8018,0,U,59112,999,12781,.42569E-3,.3272E-3,0
MESAT1,2024-125G,2026-06-16T20:24:17.756064,15.63168952,.0009546,97.2286,25.3248,204.9748,155.1050,0,U,60209,999,10951,.52812E-3,.4838E-3,0
OOV-CUBE (TUBSAT-30),2024-128F,2026-06-16T15:44:59.016768,15.02772513,.004465,61.9941,227.4248,133.6062,226.8748,0,U,60240,999,10603,.12883E-3,.1551E-4,0
COLIBRI-S (RS67S),2024-199M,2026-06-16T20:49:42.974400,15.47714656,.0006246,97.2990,41.7191,280.4484,79.6062,0,U,61746,999,13736,.35983E-3,.18559E-3,0
HORS 3 (RS81S),2024-199U,2026-06-16T21:30:51.717888,15.54957548,.000374,97.2973,43.7313,279.6834,80.3998,0,U,61753,999,13751,.48023E-3,.32134E-3,0
HORS 4 (RS82S),2024-199V,2026-06-16T20:35:22.386336,15.59655793,.000308,97.2919,44.8915,260.0445,100.0464,0,U,61754,999,13759,.49177E-3,.39228E-3,0
SIT-2086,2024-199AF,2026-06-16T20:59:01.447584,15.53068306,.0004552,97.2929,44.1863,251.7938,108.2819,0,U,61764,999,13438,.52005E-3,.32505E-3,0
HYPERVIEW 1G (RS66S),2024-199AP,2026-06-16T17:52:56.126784,15.75736016,.0003695,97.2865,47.4421,219.9631,140.1363,0,U,61772,999,13460,.76208E-3,.117914E-2,0
ALTAIR (RS65S),2024-199AW,2026-06-16T20:26:17.227392,15.37018810,.0011137,97.3024,37.2048,312.5848,47.4457,0,U,61779,999,13706,.19507E-3,.6996E-4,0
ASRTU-1 (AO-123),2024-199AY,2026-06-16T20:08:26.503296,15.35671634,.0012333,97.2995,36.5132,315.5923,44.4331,0,U,61781,999,13387,.18284E-3,.6276E-4,0
SAMSAT-IONOSPHERE (RS75S),2024-199BB,2026-06-16T19:15:31.426848,15.57594032,.0005848,97.2941,43.6807,278.1915,81.8677,0,U,61784,999,13750,.50167E-3,.37044E-3,0
RTU MIREA 1 (RS51S),2024-199BC,2026-06-16T19:51:54.402336,15.61053795,.0005521,97.2931,44.5366,269.7451,90.3174,0,U,61785,999,13441,.59478E-3,.50156E-3,0
TEVEL2-4,2025-052D,2026-06-16T15:51:11.752416,15.34595497,.0004854,97.3905,64.0518,103.7970,256.3814,0,U,63213,999,7003,.45375E-3,.15148E-3,0
TEVEL2-5,2025-052E,2026-06-16T16:20:37.891104,15.34422878,.0004781,97.3904,64.0201,105.3171,254.8600,0,U,63214,999,7003,.43161E-3,.14324E-3,0
TEVEL2-6,2025-052F,2026-06-16T16:38:22.291584,15.34387604,.0004685,97.3910,64.0166,106.2697,253.9062,0,U,63215,999,7003,.42848E-3,.14204E-3,0
TEVEL2-1,2025-052H,2026-06-16T15:45:58.811616,15.33853046,.0004751,97.3879,63.6054,114.6585,245.5153,0,U,63217,999,7001,.44286E-3,.14437E-3,0
TEVEL2-3,2025-052J,2026-06-16T12:30:24.966720,15.33904258,.00047028,97.3885,63.4913,115.0626,245.1106,0,U,63218,999,6999,.43668949E-3,.14257E-3,0
TEVEL2-2,2025-052K,2026-06-16T15:46:26.181408,15.33861744,.0004715,97.3883,63.6082,115.1533,245.0199,0,U,63219,999,7001,.44263E-3,.14434E-3,0
TEVEL2-9,2025-052AD,2026-06-16T16:46:59.939040,15.31885267,.0007764,97.3944,63.0262,132.1574,228.0328,0,U,63237,999,6995,.41358E-3,.12673E-3,0
TEVEL2-7,2025-052AE,2026-06-16T16:11:41.423136,15.31589641,.0007828,97.3945,62.9183,132.5601,227.6303,0,U,63238,999,6994,.41668E-3,.12652E-3,0
TEVEL2-8,2025-052AF,2026-06-16T16:23:33.918144,15.31573973,.0007849,97.3946,62.9032,133.0156,227.1744,0,U,63239,999,6994,.40821E-3,.12386E-3,0
INNOSAT 16 (RS92S7),2025-155C,2026-06-16T20:54:01.382976,15.25454193,.001052,97.4565,134.9996,176.3789,183.7527,0,U,64878,999,8062,.18726E-3,.4669E-4,0
GEOSCAN 6 (RS92S6),2025-155D,2026-06-16T20:30:36.925920,15.30146978,.0008307,97.4558,136.4051,163.4304,196.7209,0,U,64879,999,8071,.30482E-3,.8825E-4,0
GEOSCAN 1 (RS92S1),2025-155E,2026-06-16T20:34:19.674624,15.30741644,.0008255,97.4555,136.5554,163.1405,197.0112,0,U,64880,999,8072,.31597E-3,.9321E-4,0
239ALFEROV (RS61S),2025-155F,2026-06-16T19:51:17.633088,15.32931993,.0007995,97.4555,137.0857,160.0998,200.0557,0,U,64881,999,8075,.36588E-3,.11575E-3,0
GEOSCAN 2 (RS92S2),2025-155Q,2026-06-16T20:25:19.087104,15.31013048,.0008067,97.4553,136.7014,150.3926,209.7773,0,U,64890,999,8073,.31813E-3,.9465E-4,0
GEOSCAN 5 (RS92S5),2025-155R,2026-06-16T19:35:35.810016,15.33249489,.0006701,97.4548,137.2120,163.6154,196.5306,0,U,64891,999,8076,.3741E-3,.11952E-3,0
GEOSCAN 4 (RS92S4),2025-155S,2026-06-16T20:46:51.454848,15.33405287,.0006779,97.4551,137.3102,163.1803,196.9665,0,U,64892,999,8077,.39658E-3,.12739E-3,0
GEOSCAN 3 (RS92S3),2025-155T,2026-06-16T20:48:32.550624,15.35387677,.000673,97.4540,137.7402,161.4077,198.7414,0,U,64893,999,8080,.46223E-3,.15832E-3,0
